{
  "norad_id": 65954,
  "name": "KUIPER-00125",
  "history": [
    {
      "epoch": "2026-03-28T18:14:50.827200Z",
      "apogee_km": 630.1809245847098,
      "perigee_km": 629.0682322012917,
      "latitude_deg": -4.356151530528676e-05,
      "longitude_deg": 156.3866539317605,
      "height_km": 630.440396937937,
      "semi_major_axis_km": 7007.7615783930005,
      "eccentricity": 7.939e-05,
      "inclination_deg": 51.8999,
      "raan_deg": 256.2746,
      "arg_perigee_deg": 97.2369,
      "mean_anomaly_deg": 262.8683,
      "mean_motion_rev_day": 14.79904823
    },
    {
      "epoch": "2026-03-29T03:58:18.816384Z",
      "apogee_km": 630.1453754979766,
      "perigee_km": 629.0647816694591,
      "latitude_deg": 8.16839005936842e-06,
      "longitude_deg": 8.329004045028126,
      "height_km": 630.4214043546492,
      "semi_major_axis_km": 7007.742078583718,
      "eccentricity": 7.71e-05,
      "inclination_deg": 51.8999,
      "raan_deg": 254.4829,
      "arg_perigee_deg": 97.5047,
      "mean_anomaly_deg": 262.6003,
      "mean_motion_rev_day": 14.79911
    },
    {
      "epoch": "2026-03-30T04:16:58.369440Z",
      "apogee_km": 630.0956612815471,
      "perigee_km": 629.0513722603382,
      "latitude_deg": -1.0489657243296482e-05,
      "longitude_deg": -1.8135310323898093,
      "height_km": 630.3789044880826,
      "semi_major_axis_km": 7007.710516770942,
      "eccentricity": 7.451e-05,
      "inclination_deg": 51.9001,
      "raan_deg": 250.0036,
      "arg_perigee_deg": 96.551,
      "mean_anomaly_deg": 263.5537,
      "mean_motion_rev_day": 14.79920998
    },
    {
      "epoch": "2026-03-30T20:29:24.336960Z",
      "apogee_km": 630.0838276304548,
      "perigee_km": 629.0113715793314,
      "latitude_deg": 1.0985610874822929e-06,
      "longitude_deg": 111.4260741902684,
      "height_km": 630.3744705953575,
      "semi_major_axis_km": 7007.684599604893,
      "eccentricity": 7.652e-05,
      "inclination_deg": 51.8996,
      "raan_deg": 247.017,
      "arg_perigee_deg": 98.7018,
      "mean_anomaly_deg": 261.4031,
      "mean_motion_rev_day": 14.79929208
    },
    {
      "epoch": "2026-03-31T19:10:48.247392Z",
      "apogee_km": 630.0583169674492,
      "perigee_km": 628.9707294510472,
      "latitude_deg": -2.9800699078495625e-05,
      "longitude_deg": 125.9633804174743,
      "height_km": 630.3355590237609,
      "semi_major_axis_km": 7007.651523209248,
      "eccentricity": 7.76e-05,
      "inclination_deg": 51.8994,
      "raan_deg": 242.8358,
      "arg_perigee_deg": 97.9616,
      "mean_anomaly_deg": 262.1434,
      "mean_motion_rev_day": 14.79939686
    },
    {
      "epoch": "2026-04-01T16:14:57.010272Z",
      "apogee_km": 630.0262052010185,
      "perigee_km": 628.9526368333181,
      "latitude_deg": -2.218274067334078e-05,
      "longitude_deg": 165.17949825131907,
      "height_km": 630.3075645626101,
      "semi_major_axis_km": 7007.626421017168,
      "eccentricity": 7.66e-05,
      "inclination_deg": 51.8989,
      "raan_deg": 238.9537,
      "arg_perigee_deg": 97.7588,
      "mean_anomaly_deg": 262.3461,
      "mean_motion_rev_day": 14.79947638
    },
    {
      "epoch": "2026-04-02T10:04:36.348960Z",
      "apogee_km": 629.9484756852244,
      "perigee_km": 628.958583447019,
      "latitude_deg": -2.9182843776562495e-05,
      "longitude_deg": -106.25147098908546,
      "height_km": 630.272354933045,
      "semi_major_axis_km": 7007.590529566121,
      "eccentricity": 7.063e-05,
      "inclination_deg": 51.8994,
      "raan_deg": 235.6688,
      "arg_perigee_deg": 98.4832,
      "mean_anomaly_deg": 261.621,
      "mean_motion_rev_day": 14.79959008
    },
    {
      "epoch": "2026-04-03T13:37:43.878144Z",
      "apogee_km": 629.970823387478,
      "perigee_km": 629.0780473206132,
      "latitude_deg": -1.804519065487728e-05,
      "longitude_deg": -165.74115772915675,
      "height_km": 630.2526298849958,
      "semi_major_axis_km": 7007.661435354045,
      "eccentricity": 6.37e-05,
      "inclination_deg": 51.8997,
      "raan_deg": 230.592,
      "arg_perigee_deg": 87.7248,
      "mean_anomaly_deg": 272.3787,
      "mean_motion_rev_day": 14.79936546
    },
    {
      "epoch": "2026-04-04T15:33:37.303488Z",
      "apogee_km": 629.9474171975598,
      "perigee_km": 629.1625556950776,
      "latitude_deg": 2.9547752387353466e-05,
      "longitude_deg": 159.44340398723676,
      "height_km": 630.208818067103,
      "semi_major_axis_km": 7007.691986446318,
      "eccentricity": 5.6e-05,
      "inclination_deg": 51.8978,
      "raan_deg": 225.8141,
      "arg_perigee_deg": 76.443,
      "mean_anomaly_deg": 283.6595,
      "mean_motion_rev_day": 14.79926868
    }
  ]
}